format  = 'OEF2.0'       ! file format
rectype = 'ML'           ! record type (1L/ML)
refsys  = ECLM J2000     ! default reference system
END_OF_HEADER
2022AP7
! Keplerian elements: a, e, i, long. node, arg. peric., mean anomaly
 KEP   2.9254569008857265E+00  7.1512655742437448E-01  13.8295355637412 192.3882299950804 113.5603661805040  2.6810284507463558E+02
 MJD     59202.263679285 TDT
 MAG  17.461  0.150
! Non-gravitational parameters: model used, number of model parameters, dimension
 LSP   0  0    6
! PERIHELION   8.3338497846193726E-01
! APHELION   5.0175288233095143E+00
! ANODE   1.0014041044544508E+00
! DNODE   1.1109823801867436E-01
! MOID   4.7004969491575024E-02
! PERIOD   1.8276329669629272E+03
! PHA T
! VINFTY    17.2743822861352
! U_PAR 1.6
! ORB_TYPE Apollo
! RMS    4.09422E-07   5.01497E-07   3.19373E-05   2.24230E-04   2.10283E-04   3.96761E-05
 COV   1.676265047460671E-13 -2.271448210689081E-14  2.549861729293156E-12
 COV   8.547208876268718E-12 -2.051808862462423E-11  8.540970346052605E-12
 COV   2.514988003205111E-13 -1.250378390250347E-12 -3.915333943620804E-11
 COV   6.251574454340367E-13  1.522496536691320E-11  1.019989206761435E-09
 COV   5.561772894591848E-09 -5.439906642516088E-09  7.246145404841311E-11
 COV   5.027914804597311E-08 -4.331293068219843E-08 -2.091262356518463E-09
 COV   4.421896931812606E-08 -1.277081280676683E-09  1.574196100282630E-09
 COR   1.000000000000000E+00 -1.106276114524133E-01  1.950057861813356E-01
 COR   9.310200150663753E-02 -2.383204163043317E-01  5.257828948234450E-01
 COR   1.000000000000000E+00 -7.806847796398496E-02 -3.481824649283937E-01
 COR   5.928122114749608E-03  7.651717690910272E-01  9.999999999999999E-01
 COR   7.766431355378309E-01 -8.100080792737145E-01  5.718469911620729E-02
 COR   1.000000000000000E+00 -9.185849115163387E-01 -2.350634732334668E-01
 COR   1.000000000000000E+00 -1.530681436286856E-01  1.000000000000000E+00
